FENGYUN 1C DEB          
1 31626U 99025CAG 17346.29802698  .00001504  00000-0  61881-3 0  9995
2 31626 101.3090  24.0356 0027856  78.8441 281.5860 14.28978065551072
